satname,norad_id,inclination_deg,eccentricity,mean_motion_rev_per_day,perigee_km,apogee_km,l1,l2
STARLINK-1296,45412,53.1591,0.000278,15.33238728,464.2542499074789,468.05967735125705,1 45412U 20019BE  26099.95552007  .00046611  00000+0  14336-2 0  9993,2 45412  53.1591 343.7527 0002780 182.3260 177.7730 15.33238728334769
STARLINK-1309,45414,53.0664,0.0006314,15.61387335,379.3793677950398,387.9181508519132,1 45414U 20019BG  26100.06275386  .00091610  00000+0  10484-2 0  9991,2 45414  53.0664 331.3295 0006314 160.0357 200.0904 15.61387335334924
STARLINK-1316,45415,53.16,0.0002245,15.33334833,464.3344937960683,467.40745337620865,1 45415U 20019BH  26100.39158838  .00051513  00000+0  15774-2 0  9995,2 45415  53.1600 341.7667 0002245 205.6422 154.4469 15.33334833334856
STARLINK-1286,45417,53.0496,0.0003779,15.53556033,403.78945512309565,408.9171729024256,1 45417U 20019BK  26099.96469233  .00032358  00000+0  50493-3 0  9995,2 45417  53.0496 340.1644 0003779 147.8479 212.2762 15.53556033335085
STARLINK-1308,45419,53.0515,0.0006246,15.56853545,392.5383423324238,401.0015560933816,1 45419U 20019BM  26100.01208014  .00092613  00000+0  12581-2 0  9999,2 45419  53.0515   1.0143 0006246 153.0046 207.1291 15.56853545334548
STARLINK-1329,45531,53.0454,8.25e-05,15.6670247,367.79032997396644,368.90349981992404,1 45531U 20025A   26100.24312145  .00060158  00000+0  56273-3 0  9993,2 45531  53.0454 287.1112 0000825 311.6000  48.4945 15.66702470330388
STARLINK-1338,45532,53.0481,0.0002063,15.60595934,384.5391384288496,387.32999435714373,1 45532U 20025B   26099.88862789  .00096860  00000+0  11424-2 0  9992,2 45532  53.0481 293.3267 0002063 143.8190 216.2962 15.60595934330260
STARLINK-1350,45535,53.0716,0.0001259,15.36982141,454.17902268159924,455.8996164788696,1 45535U 20025E   26100.40229353  .00013588  00000+0  38007-3 0  9993,2 45535  53.0716 244.1130 0001259 118.1288 241.9842 15.36982141331037
STARLINK-1362,45538,53.1612,7.23e-05,15.31637335,470.4316153858035,471.421990011675,1 45538U 20025H   26100.32324215 -.00152626  00000+0 -50174-2 0  9997,2 45538  53.1612 313.9538 0000723  92.5994 267.5090 15.31637335330021
STARLINK-1368,45540,53.1595,0.0001109,15.32493444,467.6165222243344,469.13507876348285,1 45540U 20025K   26100.58335647  .00057573  00000+0  18074-2 0  9995,2 45540  53.1595 313.1169 0001109  98.5395 179.6566 15.32493444  5804
STARLINK-1371,45542,53.0491,0.0001763,15.5264368,407.814247655524,410.20739597749616,1 45542U 20025M   26099.83255163  .00082956  00000+0  13178-2 0  9999,2 45542  53.0491 300.0513 0001763 228.5088 131.5770 15.52643680330163
STARLINK-1372,45543,53.1608,0.00011,15.32838246,466.5960394982467,468.10204642769895,1 45543U 20025N   26100.58335647  .00060069  00000+0  18644-2 0  9995,2 45543  53.1608 312.8086 0001100  95.5232 313.2737 15.32838246  5814
STARLINK-1373,45544,53.0481,0.0002575,15.56931177,394.8002589896905,398.2892200855522,1 45544U 20025P   26100.53895091  .00083681  00000+0  11361-2 0  9999,2 45544  53.0481 295.2963 0002575 171.5737 188.5317 15.56931177330296
STARLINK-1327,45555,53.0447,0.0004792,15.59442582,386.02631863600254,392.51220079531413,1 45555U 20025AA  26100.49211907  .00064054  00000+0  79453-3 0  9994,2 45555  53.0447 272.4195 0004792 195.6577 164.4287 15.59442582330600
STARLINK-1356,45564,53.0499,0.0003295,15.50045264,414.3549236171584,418.83265120606393,1 45564U 20025AK  26099.80006872  .00088218  00000+0  15357-2 0  9999,2 45564  53.0499 285.1853 0003295 176.1685 183.9348 15.50045264330364
STARLINK-1357,45565,53.0468,0.0005157,15.62780943,376.1433059392857,383.1132650547479,1 45565U 20025AL  26100.00002315  .00076138  00000+0  82828-3 0  9999,2 45565  53.0468 245.7457 0005157 282.5736  78.8085 15.62780943  5958
STARLINK-1361,45567,53.0475,0.000406,15.53275651,404.41490109966617,409.9245701690006,1 45567U 20025AN  26100.53391096  .00098052  00000+0  15180-2 0  9991,2 45567  53.0475 281.0110 0004060 143.5839 216.5448 15.53275651330498
STARLINK-1363,45568,53.0389,0.0001412,15.86132668,312.19250922995616,314.08212509712394,1 45568U 20025AP  26100.58335647  .00131474  00000+0  51438-3 0  9990,2 45568  53.0389 237.4115 0001412 229.5408 278.9490 15.86132668  6011
STARLINK-1366,45569,53.0375,0.0001666,15.84351837,317.03482672898645,319.2660297000675,1 45569U 20025AQ  26100.58335647  .00172471  00000+0  73068-3 0  9996,2 45569  53.0375 238.4877 0001666 199.8043  77.4825 15.84351837  6000
STARLINK-1376,45570,53.1609,0.0001067,15.33323129,465.1755414803756,466.63606021407577,1 45570U 20025AR  26100.24021537  .00095056  00000+0  28856-2 0  9998,2 45570  53.1609 290.9742 0001067 309.6800  50.4108 15.33323129330332
STARLINK-1320,45572,53.0465,0.0003249,15.74537577,343.76272679368867,348.132036824989,1 45572U 20025AT  26100.28942266  .00092769  00000+0  62115-3 0  9990,2 45572  53.0465 189.1715 0003249 105.3276 254.8102 15.74537577331776
STARLINK-1321,45573,53.0471,0.0003769,15.54247607,401.7843093950887,406.89694102897374,1 45573U 20025AU  26099.87881484  .00050665  00000+0  76518-3 0  9998,2 45573  53.0471 268.5650 0003769 229.9200 130.1480 15.54247607330304
STARLINK-1331,45578,53.0506,0.0004596,15.54048451,401.8025831245759,408.0375691889785,1 45578U 20025AZ  26100.27486702  .00097029  00000+0  14607-2 0  9999,2 45578  53.0506 273.3755 0004596 230.5007 129.5596 15.54048451330586
STARLINK-1333,45580,53.1596,0.0001329,15.30413348,473.66739891186626,475.4888505920253,1 45580U 20025BB  26100.24022581  .00050142  00000+0  16826-2 0  9990,2 45580  53.1596 291.2600 0001329  81.5626 278.5526 15.30413348330335
STARLINK-1335,45581,53.1562,8.26e-05,15.3188126,469.63404926362455,470.7653944900794,1 45581U 20025BC  26100.33335648  .00074118  00000+0  23632-2 0  9994,2 45581  53.1562 288.2063 0000826  87.0800 295.7274 15.31881260  5876
STARLINK-1337,45582,53.0503,0.0004628,15.64699578,370.97797033095867,377.2278435888411,1 45582U 20025BD  26100.18272958  .00078606  00000+0  79270-3 0  9998,2 45582  53.0503 268.1118 0004628 241.5574 118.4974 15.64699578330636
STARLINK-1347,45586,53.0398,0.0002028,15.61130866,383.0178680306626,385.7607487013356,1 45586U 20025BH  26100.00002315  .00063778  00000+0  74203-3 0  9996,2 45586  53.0398 237.5541 0002028 280.1199  87.8369 15.61130866  5943
STARLINK-1364,45589,53.0475,0.0004971,15.55525307,397.25633338270836,403.9957796134795,1 45589U 20025BL  26100.16996936  .00102643  00000+0  14624-2 0  9992,2 45589  53.0475 271.6050 0004971 194.2429 165.8442 15.55525307330587
STARLINK-1365,45590,53.0504,0.0003741,15.50579865,412.4906047921031,417.5732537849972,1 45590U 20025BM  26099.85637832  .00073749  00000+0  12633-2 0  9996,2 45590  53.0504 304.4883 0003741 179.9959 180.1049 15.50579865330118
STARLINK-1443,45660,53.1361,0.000158,15.28178073,480.1750498651727,482.3426189488464,1 45660U 20035D   26100.46792602  .00047675  00000+0  17145-2 0  9994,2 45660  53.1361 278.0388 0001580 199.5635 160.5304 15.28178073323616
STARLINK-1446,45663,53.0235,0.0003013,15.44316432,431.3350299692147,435.43965453785677,1 45663U 20035G   26100.47251103  .00017358  00000+0  37903-3 0  9994,2 45663  53.0235 208.2438 0003013  20.9537 339.1591 15.44316432324580
STARLINK-1448,45665,53.0467,0.0005325,15.59696497,384.93150829717433,392.1380137226506,1 45665U 20035J   26100.51458848  .00110778  00000+0  13484-2 0  9993,2 45665  53.0467 258.7008 0005325 231.2549 128.7987 15.59696497323870
STARLINK-1451,45668,53.0524,9.21e-05,15.11820874,530.0107247104124,531.2833227275814,1 45668U 20035M   26100.49809664  .00025995  00000+0  15159-2 0  9996,2 45668  53.0524 282.2655 0000921 110.6196 249.4894 15.11820874323551
STARLINK-1452,45669,53.0274,0.0002242,15.4993597,415.3897544708452,418.43665498264363,1 45669U 20035N   26100.51966999  .00069210  00000+0  12142-2 0  9992,2 45669  53.0274 229.4995 0002242 180.3453 179.7553 15.49935970324296
STARLINK-1453,45670,53.0423,6.03e-05,15.60096258,386.9708174604639,387.7867386632979,1 45670U 20035P   26100.00002315  .00083714  00000+0  10089-2 0  9994,2 45670  53.0423 221.7115 0000603 352.4407  84.5179 15.60096258  5948
STARLINK-1454,45671,53.0472,0.0004863,15.58197715,389.5804244297615,396.16590891786836,1 45671U 20035Q   26100.44960811  .00157311  00000+0  20122-2 0  9991,2 45671  53.0472 259.4551 0004863 204.0476 156.0309 15.58197715323855
STARLINK-1456,45673,53.0465,0.0004149,15.55795483,397.02906061659996,402.65342696329753,1 45673U 20035S   26099.06787846  .00099557  00000+0  14054-2 0  9997,2 45673  53.0465 260.0006 0004149 287.1286  72.9270 15.55795483323744
STARLINK-1457,45674,53.0407,0.0002595,15.90066603,300.3627897821125,303.8298308701724,1 45674U 20035T   26100.58335647  .00234868  00000+0  74521-3 0  9998,2 45674  53.0407 221.5047 0002595 292.5474 334.9569 15.90066603  5956
STARLINK-1458,45675,53.0502,0.0004845,15.47710795,420.12920892891816,426.7199220858947,1 45675U 20035U   26098.75719484  .00090859  00000+0  17152-2 0  9995,2 45675  53.0502 272.3021 0004845 212.5071 147.5639 15.47710795323504
STARLINK-1460,45676,53.1591,0.0001488,15.30368805,473.69139065016043,475.7307982430684,1 45676U 20035V   26100.21130432  .00045969  00000+0  15465-2 0  9998,2 45676  53.1591 278.5320 0001488  75.0019 285.1147 15.30368805323548
STARLINK-1392,45677,53.1556,0.0001832,15.332173,464.96684698329955,467.4746196567876,1 45677U 20035W   26100.58335647  .00013926  00000+0  43848-3 0  9999,2 45677  53.1556 276.7250 0001832 101.2820 129.6040 15.33217300  5869
STARLINK-1394,45679,53.0459,0.0005525,15.56036601,395.39658502746806,402.8854772518762,1 45679U 20035Y   26100.41367159  .00098202  00000+0  13739-2 0  9991,2 45679  53.0459 243.7063 0005525 295.5496  64.4943 15.56036601324081
STARLINK-1402,45685,53.0443,0.000602,15.5031132,411.7264220681582,419.9063419400909,1 45685U 20035AE  26100.36708696  .00095000  00000+0  16356-2 0  9998,2 45685  53.0443 231.9724 0006020 332.3408  27.7279 15.50311320324259
